[{"OBJECT_NAME":"STARLINK-5996","OBJECT_ID":"2023-094K","EPOCH":"2026-03-08T23:47:53.593728","MEAN_MOTION":15.02537614,"ECCENTRICITY":0.00013634,"INCLINATION":43.0047,"RA_OF_ASC_NODE":34.2324,"ARG_OF_PERICENTER":267.6245,"MEAN_ANOMALY":92.4441,"EPHEMERIS_TYPE":0,"CLASSIFICATION_TYPE":"U","NORAD_CAT_ID":57227,"ELEMENT_SET_NO":999,"REV_AT_EPOCH":14701,"BSTAR":-1.178135e-5,"MEAN_MOTION_DOT":-3.63e-6,"MEAN_MOTION_DDOT":0},{"OBJECT_NAME":"DELTA 1 DEB","OBJECT_ID":"1972-058BG","EPOCH":"2026-03-09T20:01:49.581696","MEAN_MOTION":14.88535429,"ECCENTRICITY":0.00965988,"INCLINATION":98.8237,"RA_OF_ASC_NODE":167.9558,"ARG_OF_PERICENTER":346.289,"MEAN_ANOMALY":13.5703,"EPHEMERIS_TYPE":0,"CLASSIFICATION_TYPE":"U","NORAD_CAT_ID":7890,"ELEMENT_SET_NO":999,"REV_AT_EPOCH":62566,"BSTAR":0.0011014398,"MEAN_MOTION_DOT":0.00011112,"MEAN_MOTION_DDOT":0}]
